IRIDIUM 7 [-]           
1 24793U 97020B   24037.94022793  .00000634  00000+0  21566-3 0  9990
2 24793  86.3961  24.7627 0002037  81.9123 278.2305 14.35064980400702
IRIDIUM 5 [-]           
1 24795U 97020D   24037.78745724  .00004632  00000+0  45197-3 0  9998
2 24795  86.3951 310.9186 0127712 108.1836 253.3341 14.86143838411548
IRIDIUM 4 [-]           
1 24796U 97020E   24037.96142723  .00000682  00000+0  22840-3 0  9990
2 24796  86.3961  21.9622 0002299  84.0252 276.1206 14.35977150401234
IRIDIUM 914 [-]         
1 24836U 97030A   24037.92540648  .00000515  00000+0  15785-3 0  9995
2 24836  86.3923  32.0318 0003944  73.8783 286.2849 14.39811087535698
IRIDIUM 16 [-]          
1 24841U 97030F   24037.56951699  .00000664  00000+0  21442-3 0  9995
2 24841  86.3996  53.8276 0000519 158.7427 201.3792 14.37696756395625
IRIDIUM 911 [-]         
1 24842U 97030G   24037.58763724  .00000891  00000+0  24310-3 0  9997
2 24842  86.4421  53.0570 0012765 319.7310  40.2946 14.46274359403256
IRIDIUM 17 [-]          
1 24870U 97034B   24037.66437308  .00000597  00000+0  19556-3 0  9996
2 24870  86.3917  83.4437 0002302 134.5125 225.6261 14.36793660392265
IRIDIUM 920 [-]         
1 24871U 97034C   24037.59581067  .00000633  00000+0  19269-3 0  9993
2 24871  86.3929  63.8428 0009397 282.0334  77.9812 14.40514940395061
